CONNECTA IOT-13         
1 67400U 26004AP  26068.89630914  .00004418  00000+0  22273-3 0  9996
2 67400  97.4574  69.4172 0008346 345.5859  14.5136 15.17636182  8697
2026-027F               
1 67751U 26027F   26068.82581808  .00004513  00000+0  22391-3 0  9997
2 67751  97.4922 197.8630 0009672 203.5802 156.4990 15.18180546  3881
